#cP2024  1  1  0 37  30.0000000       8  0  0  GPS                              
##  1  0.0  900 0.0 900.00000000000                                             
%c G  cc GPS ccc ccc ccc ccc ccc ccc ccc ccc                                    
%f  1.25000000000  1.0250000000000  0.00000000000  1234.56789012345             
%i    0    0   12   18    0   0   0   0                                         
+        5   G01  G02  G03  G04  G05  0  0  0  0  0  0  0  0  0  0  0  0  0  0  
++        0    0    0    0    0    0    0    0    0    0    0    0    0    0    
/* Synthetic SP3-c sample                                                       
*  2024  1  1  0 37  30.0000000                                                 
PG01 21106.3629660  4426.6410000 15672.2094830    10.0000000                    
PG02-25403.8509660  4426.6410000 15672.2094830    10.0000000                    
PG03 -2148.7440000 27681.7479660 -7582.8974830    10.0000000                    
PG04 -2148.7440000-18828.4659660 -7582.8974830    10.0000000                    
PG05  7634.7530312 14210.1380312 26057.5243202    10.0000000                    
*  2024  1  1  0 52  30.0000000                                                 
PG01 21106.3629660  4426.6410000 15672.2094830    10.0000000                    
PG02-25403.8509660  4426.6410000 15672.2094830    10.0000000                    
PG03 -2148.7440000 27681.7479660 -7582.8974830    10.0000000                    
PG04 -2148.7440000-18828.4659660 -7582.8974830    10.0000000                    
PG05  7634.7530312 14210.1380312 26057.5243202    10.0000000                    
*  2024  1  1  1  7  30.0000000                                                 
PG01 21106.3629660  4426.6410000 15672.2094830    10.0000000                    
PG02-25403.8509660  4426.6410000 15672.2094830    10.0000000                    
PG03 -2148.7440000 27681.7479660 -7582.8974830    10.0000000                    
PG04 -2148.7440000-18828.4659660 -7582.8974830    10.0000000                    
PG05  7634.7530312 14210.1380312 26057.5243202    10.0000000                    
*  2024  1  1  1 22  30.0000000                                                 
PG01 21106.3629660  4426.6410000 15672.2094830    10.0000000                    
PG02-25403.8509660  4426.6410000 15672.2094830    10.0000000                    
PG03 -2148.7440000 27681.7479660 -7582.8974830    10.0000000                    
PG04 -2148.7440000-18828.4659660 -7582.8974830    10.0000000                    
PG05  7634.7530312 14210.1380312 26057.5243202    10.0000000                    
*  2024  1  1  1 37  30.0000000                                                 
PG01 21106.3629660  4426.6410000 15672.2094830    10.0000000                    
PG02-25403.8509660  4426.6410000 15672.2094830    10.0000000                    
PG03 -2148.7440000 27681.7479660 -7582.8974830    10.0000000                    
PG04 -2148.7440000-18828.4659660 -7582.8974830    10.0000000                    
PG05  7634.7530312 14210.1380312 26057.5243202    10.0000000                    
*  2024  1  1  1 52  30.0000000                                                 
PG01 21106.3629660  4426.6410000 15672.2094830    10.0000000                    
PG02-25403.8509660  4426.6410000 15672.2094830    10.0000000                    
PG03 -2148.7440000 27681.7479660 -7582.8974830    10.0000000                    
PG04 -2148.7440000-18828.4659660 -7582.8974830    10.0000000                    
PG05  7634.7530312 14210.1380312 26057.5243202    10.0000000                    
*  2024  1  1  2  7  30.0000000                                                 
PG01 21106.3629660  4426.6410000 15672.2094830    10.0000000                    
PG02-25403.8509660  4426.6410000 15672.2094830    10.0000000                    
PG03 -2148.7440000 27681.7479660 -7582.8974830    10.0000000                    
PG04 -2148.7440000-18828.4659660 -7582.8974830    10.0000000                    
PG05  7634.7530312 14210.1380312 26057.5243202    10.0000000                    
*  2024  1  1  2 22  30.0000000                                                 
PG01 21106.3629660  4426.6410000 15672.2094830    10.0000000                    
PG02-25403.8509660  4426.6410000 15672.2094830    10.0000000                    
PG03 -2148.7440000 27681.7479660 -7582.8974830    10.0000000                    
PG04 -2148.7440000-18828.4659660 -7582.8974830    10.0000000                    
PG05  7634.7530312 14210.1380312 26057.5243202    10.0000000                    
%i    0    0    0    0    1    0    0    0   0                                  
